OBJECT_NAME,OBJECT_ID,EPOCH,MEAN_MOTION,ECCENTRICITY,INCLINATION,RA_OF_ASC_NODE,ARG_OF_PERICENTER,MEAN_ANOMALY,EPHEMERIS_TYPE,CLASSIFICATION_TYPE,NORAD_CAT_ID,ELEMENT_SET_NO,REV_AT_EPOCH,BSTAR,MEAN_MOTION_DOT,MEAN_MOTION_DDOT
HAWK-5A,2022-057AB,2026-07-02T04:46:24.362112,15.51925847,.00044698,97.6622,343.0221,27.0814,333.0670,0,U,52757,999,22867,.34125392E-3,.20403E-3,0
HAWK-6B,2023-011A,2026-07-02T06:21:33.469344,15.23063308,.00020805,40.4981,264.1229,164.1182,195.9693,0,U,55324,999,19014,.21195249E-3,.4906E-4,0
HAWK-6C,2023-011C,2026-07-01T22:28:33.040992,15.23057848,.00023815,40.4968,262.8757,139.4806,220.6180,0,U,55326,999,19010,.2096184E-3,.4849E-4,0
HAWK-6A,2023-011D,2026-07-01T22:28:36.160896,15.23058804,.00019386,40.4979,264.5015,137.9484,222.1474,0,U,55327,999,19010,.2109256E-3,.4881E-4,0
HAWK-7A,2023-054P,2026-07-02T04:16:22.248192,15.27516870,.00029713,97.2682,70.1344,21.4326,338.7037,0,U,56191,999,17931,.25120748E-3,.6691E-4,0
HAWK-7B,2023-054R,2026-07-02T04:16:16.488768,15.27515641,.00027123,97.2708,68.4035,41.0635,319.0809,0,U,56193,999,17931,.25199661E-3,.6712E-4,0
HAWK-7C,2023-054Y,2026-07-02T05:50:26.398176,15.27515766,.00024418,97.2685,69.2312,29.9034,330.2345,0,U,56200,999,17932,.25229168E-3,.672E-4,0
