HAWK-5A                 
1 52757U 22057AB  26183.19889308  .00020403  00000+0  34125-3 0  9994
2 52757  97.6622 343.0221 0004469  27.0814 333.0670 15.51925847228674
HAWK-6B                 
1 55324U 23011A   26183.26497071  .00004906  00000+0  21195-3 0  9991
2 55324  40.4981 264.1229 0002080 164.1182 195.9693 15.23063308190144
HAWK-6C                 
1 55326U 23011C   26182.93649353  .00004849  00000+0  20962-3 0  9995
2 55326  40.4968 262.8757 0002381 139.4806 220.6180 15.23057848190109
HAWK-6A                 
1 55327U 23011D   26182.93652964  .00004881  00000+0  21093-3 0  9990
2 55327  40.4979 264.5015 0001938 137.9484 222.1474 15.23058804190106
HAWK-7A                 
1 56191U 23054P   26183.17803528  .00006691  00000+0  25121-3 0  9995
2 56191  97.2682  70.1344 0002971  21.4326 338.7037 15.27516870179318
HAWK-7B                 
1 56193U 23054R   26183.17796862  .00006712  00000+0  25200-3 0  9991
2 56193  97.2708  68.4035 0002712  41.0635 319.0809 15.27515641179314
HAWK-7C                 
1 56200U 23054Y   26183.24336109  .00006720  00000+0  25229-3 0  9992
2 56200  97.2685  69.2312 0002441  29.9034 330.2345 15.27515766179320
